KINEIS-1B               
1 60079U 24114A   26204.34185259  .00000806  00000+0  11177-3 0  9998
2 60079  97.9829 228.3547 0002318  18.7982 341.3315 14.80676632112757
KINEIS-1C               
1 60081U 24114C   26204.24032301  .00000725  00000+0  10113-3 0  9998
2 60081  97.9843 228.1108 0002531  84.5740 275.5761 14.80677806112710
KINEIS-1D               
1 60082U 24114D   26204.16844411  .00000572  00000+0  89642-4 0  9997
2 60082  97.9880 223.9124 0002961  86.1430 274.0119 14.76370144112434
KINEIS-1E               
1 60083U 24114E   26204.32559344  .00000987  00000+0  13509-3 0  9992
2 60083  97.8946 227.1750 0004232  93.0471 267.1226 14.80705456112731
KINEIS-1A               
1 60084U 24114F   26204.29152094  .00000858  00000+0  11828-3 0  9999
2 60084  97.8919 227.2323 0004928  42.2667 317.8925 14.80692305112731
KINEIS-3C               
1 61220U 24172A   26204.16022022  .00001552  00000+0  25338-3 0  9992
2 61220  98.0431 293.6777 0002388  69.6831 290.4633 14.72309449 98369
KINEIS-3D               
1 61221U 24172B   26204.22147016  .00000994  00000+0  16506-3 0  9997
2 61221  98.0427 293.7495 0002369  63.8083 296.3367 14.72304907 98652
KINEIS-3E               
1 61222U 24172C   26204.20444360  .00001510  00000+0  24683-3 0  9998
2 61222  98.0425 293.7121 0001608  84.0060 276.1330 14.72295764 98658
KINEIS-3A               
1 61223U 24172D   26204.18771153  .00001512  00000+0  24698-3 0  9997
2 61223  98.0422 293.7938 0001598  23.6910 336.4370 14.72329047 98075
KINEIS-3B               
1 61224U 24172E   26204.17041330  .00001500  00000+0  24514-3 0  9998
2 61224  98.0417 293.7983 0001000   5.4882 354.6336 14.72315122 98640
KINEIS-5C               
1 62081U 24219A   26204.28348972  .00000633  00000+0  10768-3 0  9998
2 62081  97.9076   2.1402 0004763 150.6082 209.5395 14.72322633 89067
KINEIS-5D               
1 62082U 24219B   26204.24106029  .00000904  00000+0  15000-3 0  9995
2 62082  97.9189   2.1801 0005847 145.1027 215.0565 14.72504683 89066
KINEIS-5E               
1 62083U 24219C   26204.25995926  .00000590  00000+0  10090-3 0  9994
2 62083  97.9033   2.2071 0007319 141.5108 218.6623 14.72306676 89078
KINEIS-5A               
1 62084U 24219D   26204.23830645  .00002401  00000+0  38759-3 0  9994
2 62084  97.8975   2.4599 0004430 173.6989 186.4275 14.72294175 89079
KINEIS-5B               
1 62085U 24219E   26204.25815539  .00001035  00000+0  14933-3 0  9992
2 62085  98.0099   7.8906 0002919 129.6544 230.4924 14.78398223 89334
KINEIS-2C               
1 62929U 25028B   26204.10981305  .00001251  00000+0  20063-3 0  9998
2 62929  98.1224 258.5409 0004739 139.3842 220.7720 14.73445558 77901
