{"fetched_at":"2026-07-23T17:55:39.060Z","source":"https://celestrak.org/NORAD/elements/gp.php?NAME=KINEIS&FORMAT=JSON","constellation":"kineis","records":[{"OBJECT_NAME":"KINEIS-1B","OBJECT_ID":"2024-114A","EPOCH":"2026-07-23T08:12:16.063776","CLASSIFICATION_TYPE":"U","MEAN_MOTION":14.80676632,"ECCENTRICITY":0.00023185,"INCLINATION":97.9829,"RA_OF_ASC_NODE":228.3547,"ARG_OF_PERICENTER":18.7982,"MEAN_ANOMALY":341.3315,"EPHEMERIS_TYPE":0,"NORAD_CAT_ID":60079,"ELEMENT_SET_NO":999,"REV_AT_EPOCH":11275,"BSTAR":0.00011177006,"MEAN_MOTION_DOT":0.00000806,"MEAN_MOTION_DDOT":0},{"OBJECT_NAME":"KINEIS-1C","OBJECT_ID":"2024-114C","EPOCH":"2026-07-23T05:46:03.908064","CLASSIFICATION_TYPE":"U","MEAN_MOTION":14.80677806,"ECCENTRICITY":0.00025312,"INCLINATION":97.9843,"RA_OF_ASC_NODE":228.1108,"ARG_OF_PERICENTER":84.574,"MEAN_ANOMALY":275.5761,"EPHEMERIS_TYPE":0,"NORAD_CAT_ID":60081,"ELEMENT_SET_NO":999,"REV_AT_EPOCH":11271,"BSTAR":0.00010112875,"MEAN_MOTION_DOT":0.00000725,"MEAN_MOTION_DDOT":0},{"OBJECT_NAME":"KINEIS-1D","OBJECT_ID":"2024-114D","EPOCH":"2026-07-23T04:02:33.571104","CLASSIFICATION_TYPE":"U","MEAN_MOTION":14.76370144,"ECCENTRICITY":0.00029617,"INCLINATION":97.988,"RA_OF_ASC_NODE":223.9124,"ARG_OF_PERICENTER":86.143,"MEAN_ANOMALY":274.0119,"EPHEMERIS_TYPE":0,"NORAD_CAT_ID":60082,"ELEMENT_SET_NO":999,"REV_AT_EPOCH":11243,"BSTAR":0.000089641949,"MEAN_MOTION_DOT":0.00000572,"MEAN_MOTION_DDOT":0},{"OBJECT_NAME":"KINEIS-1E","OBJECT_ID":"2024-114E","EPOCH":"2026-07-23T07:48:51.273216","CLASSIFICATION_TYPE":"U","MEAN_MOTION":14.80705456,"ECCENTRICITY":0.00042327,"INCLINATION":97.8946,"RA_OF_ASC_NODE":227.175,"ARG_OF_PERICENTER":93.0471,"MEAN_ANOMALY":267.1226,"EPHEMERIS_TYPE":0,"NORAD_CAT_ID":60083,"ELEMENT_SET_NO":999,"REV_AT_EPOCH":11273,"BSTAR":0.00013508911,"MEAN_MOTION_DOT":0.00000987,"MEAN_MOTION_DDOT":0},{"OBJECT_NAME":"KINEIS-1A","OBJECT_ID":"2024-114F","EPOCH":"2026-07-23T06:59:47.409216","CLASSIFICATION_TYPE":"U","MEAN_MOTION":14.80692305,"ECCENTRICITY":0.00049288,"INCLINATION":97.8919,"RA_OF_ASC_NODE":227.2323,"ARG_OF_PERICENTER":42.2667,"MEAN_ANOMALY":317.8925,"EPHEMERIS_TYPE":0,"NORAD_CAT_ID":60084,"ELEMENT_SET_NO":999,"REV_AT_EPOCH":11273,"BSTAR":0.0001182841,"MEAN_MOTION_DOT":0.00000858,"MEAN_MOTION_DDOT":0},{"OBJECT_NAME":"KINEIS-3C","OBJECT_ID":"2024-172A","EPOCH":"2026-07-23T03:50:43.027008","CLASSIFICATION_TYPE":"U","MEAN_MOTION":14.72309449,"ECCENTRICITY":0.00023882,"INCLINATION":98.0431,"RA_OF_ASC_NODE":293.6777,"ARG_OF_PERICENTER":69.6831,"MEAN_ANOMALY":290.4633,"EPHEMERIS_TYPE":0,"NORAD_CAT_ID":61220,"ELEMENT_SET_NO":999,"REV_AT_EPOCH":9836,"BSTAR":0.00025338244,"MEAN_MOTION_DOT":0.00001552,"MEAN_MOTION_DDOT":0},{"OBJECT_NAME":"KINEIS-3D","OBJECT_ID":"2024-172B","EPOCH":"2026-07-23T05:18:55.021824","CLASSIFICATION_TYPE":"U","MEAN_MOTION":14.72304907,"ECCENTRICITY":0.00023692,"INCLINATION":98.0427,"RA_OF_ASC_NODE":293.7495,"ARG_OF_PERICENTER":63.8083,"MEAN_ANOMALY":296.3367,"EPHEMERIS_TYPE":0,"NORAD_CAT_ID":61221,"ELEMENT_SET_NO":999,"REV_AT_EPOCH":9865,"BSTAR":0.00016506469,"MEAN_MOTION_DOT":0.00000994,"MEAN_MOTION_DDOT":0},{"OBJECT_NAME":"KINEIS-3E","OBJECT_ID":"2024-172C","EPOCH":"2026-07-23T04:54:23.927040","CLASSIFICATION_TYPE":"U","MEAN_MOTION":14.72295764,"ECCENTRICITY":0.00016088,"INCLINATION":98.0425,"RA_OF_ASC_NODE":293.7121,"ARG_OF_PERICENTER":84.006,"MEAN_ANOMALY":276.133,"EPHEMERIS_TYPE":0,"NORAD_CAT_ID":61222,"ELEMENT_SET_NO":999,"REV_AT_EPOCH":9865,"BSTAR":0.00024683143,"MEAN_MOTION_DOT":0.0000151,"MEAN_MOTION_DDOT":0},{"OBJECT_NAME":"KINEIS-3A","OBJECT_ID":"2024-172D","EPOCH":"2026-07-23T04:30:18.276192","CLASSIFICATION_TYPE":"U","MEAN_MOTION":14.72329047,"ECCENTRICITY":0.00015983,"INCLINATION":98.0422,"RA_OF_ASC_NODE":293.7938,"ARG_OF_PERICENTER":23.691,"MEAN_ANOMALY":336.437,"EPHEMERIS_TYPE":0,"NORAD_CAT_ID":61223,"ELEMENT_SET_NO":999,"REV_AT_EPOCH":9807,"BSTAR":0.00024697791,"MEAN_MOTION_DOT":0.00001512,"MEAN_MOTION_DDOT":0},{"OBJECT_NAME":"KINEIS-3B","OBJECT_ID":"2024-172E","EPOCH":"2026-07-23T04:05:23.709120","CLASSIFICATION_TYPE":"U","MEAN_MOTION":14.72315122,"ECCENTRICITY":0.00010007,"INCLINATION":98.0417,"RA_OF_ASC_NODE":293.7983,"ARG_OF_PERICENTER":5.4882,"MEAN_ANOMALY":354.6336,"EPHEMERIS_TYPE":0,"NORAD_CAT_ID":61224,"ELEMENT_SET_NO":999,"REV_AT_EPOCH":9864,"BSTAR":0.00024514044,"MEAN_MOTION_DOT":0.000015,"MEAN_MOTION_DDOT":0},{"OBJECT_NAME":"KINEIS-5C","OBJECT_ID":"2024-219A","EPOCH":"2026-07-23T06:48:13.511808","CLASSIFICATION_TYPE":"U","MEAN_MOTION":14.72322633,"ECCENTRICITY":0.00047631,"INCLINATION":97.9076,"RA_OF_ASC_NODE":2.1402,"ARG_OF_PERICENTER":150.6082,"MEAN_ANOMALY":209.5395,"EPHEMERIS_TYPE":0,"NORAD_CAT_ID":62081,"ELEMENT_SET_NO":999,"REV_AT_EPOCH":8906,"BSTAR":0.00010768356,"MEAN_MOTION_DOT":0.00000633,"MEAN_MOTION_DDOT":0},{"OBJECT_NAME":"KINEIS-5D","OBJECT_ID":"2024-219B","EPOCH":"2026-07-23T05:47:07.609056","CLASSIFICATION_TYPE":"U","MEAN_MOTION":14.72504683,"ECCENTRICITY":0.00058475,"INCLINATION":97.9189,"RA_OF_ASC_NODE":2.1801,"ARG_OF_PERICENTER":145.1027,"MEAN_ANOMALY":215.0565,"EPHEMERIS_TYPE":0,"NORAD_CAT_ID":62082,"ELEMENT_SET_NO":999,"REV_AT_EPOCH":8906,"BSTAR":0.00014999581,"MEAN_MOTION_DOT":0.00000904,"MEAN_MOTION_DDOT":0},{"OBJECT_NAME":"KINEIS-5E","OBJECT_ID":"2024-219C","EPOCH":"2026-07-23T06:14:20.480064","CLASSIFICATION_TYPE":"U","MEAN_MOTION":14.72306676,"ECCENTRICITY":0.00073191,"INCLINATION":97.9033,"RA_OF_ASC_NODE":2.2071,"ARG_OF_PERICENTER":141.5108,"MEAN_ANOMALY":218.6623,"EPHEMERIS_TYPE":0,"NORAD_CAT_ID":62083,"ELEMENT_SET_NO":999,"REV_AT_EPOCH":8907,"BSTAR":0.00010090404,"MEAN_MOTION_DOT":0.0000059,"MEAN_MOTION_DDOT":0},{"OBJECT_NAME":"KINEIS-5A","OBJECT_ID":"2024-219D","EPOCH":"2026-07-23T05:43:09.677280","CLASSIFICATION_TYPE":"U","MEAN_MOTION":14.72294175,"ECCENTRICITY":0.00044302,"INCLINATION":97.8975,"RA_OF_ASC_NODE":2.4599,"ARG_OF_PERICENTER":173.6989,"MEAN_ANOMALY":186.4275,"EPHEMERIS_TYPE":0,"NORAD_CAT_ID":62084,"ELEMENT_SET_NO":999,"REV_AT_EPOCH":8907,"BSTAR":0.00038758534,"MEAN_MOTION_DOT":0.00002401,"MEAN_MOTION_DDOT":0},{"OBJECT_NAME":"KINEIS-5B","OBJECT_ID":"2024-219E","EPOCH":"2026-07-23T06:11:44.625696","CLASSIFICATION_TYPE":"U","MEAN_MOTION":14.78398223,"ECCENTRICITY":0.00029196,"INCLINATION":98.0099,"RA_OF_ASC_NODE":7.8906,"ARG_OF_PERICENTER":129.6544,"MEAN_ANOMALY":230.4924,"EPHEMERIS_TYPE":0,"NORAD_CAT_ID":62085,"ELEMENT_SET_NO":999,"REV_AT_EPOCH":8933,"BSTAR":0.00014932723,"MEAN_MOTION_DOT":0.00001035,"MEAN_MOTION_DDOT":0},{"OBJECT_NAME":"KINEIS-2C","OBJECT_ID":"2025-028B","EPOCH":"2026-07-23T02:38:07.847520","CLASSIFICATION_TYPE":"U","MEAN_MOTION":14.73445558,"ECCENTRICITY":0.00047393,"INCLINATION":98.1224,"RA_OF_ASC_NODE":258.5409,"ARG_OF_PERICENTER":139.3842,"MEAN_ANOMALY":220.772,"EPHEMERIS_TYPE":0,"NORAD_CAT_ID":62929,"ELEMENT_SET_NO":999,"REV_AT_EPOCH":7790,"BSTAR":0.00020063324,"MEAN_MOTION_DOT":0.00001251,"MEAN_MOTION_DDOT":0}]}
